P/2012 O2 (McNaught),e,24.4556,120.6592,183.4018,3.630540,0.1424778,0.53125269,335.2797,10/10.0/2025,2000,g 17.0,4.0
# From MPEC 2025-SI6
P/2012 T2 (PANSTARRS),e,12.5687,73.7472,308.7194,5.698842,0.0724476,0.15750463,329.4979,10/10.0/2025,2000,g 10.0,4.0
# From MPC 80900
P/2012 T3 (PANSTARRS),e,9.5536,114.3213,195.4483,6.160286,0.0644618,0.61557560,316.8800,10/10.0/2025,2000,g 15.0,4.0
# From MPC 82720
P/2012 U2 (PANSTARRS),e,10.7573,185.2564,228.4718,7.125521,0.0518178,0.50037631,243.4956,10/10.0/2025,2000,g 12.5,4.0
# From MPC 82721
P/2013 AL76 (Catalina),e,144.9190,146.1061,27.1358,6.499507,0.0594817,0.68549345,279.2694,10/10.0/2025,2000,g 16.0,4.0
# From MPC 91612
P/2013 G1 (Kowalski),e,5.4570,221.3124,51.3335,6.908383,0.0542800,0.51003022,235.6431,10/10.0/2025,2000,g 11.0,4.0
# From MPC 84025
P/2013 G4 (PANSTARRS),e,5.9202,339.5877,214.5104,4.432213,0.1056266,0.40955618,127.6680,10/10.0/2025,2000,g 15.0,4.0
# From MPC 91613
P/2013 J2 (McNaught),e,15.4995,289.2838,37.8440,6.230889,0.0633693,0.65572491,280.7356,10/10.0/2025,2000,g 13.0,4.0
# From MPC 86229
P/2013 N3 (PANSTARRS),e,2.1664,17.6040,323.8582,7.407282,0.0488895,0.59061919,208.2321,10/10.0/2025,2000,g 13.0,4.0
# From MPC 85834
P/2013 N5 (PANSTARRS),e,23.4031,187.1543,176.9565,6.800091,0.0555817,0.73128102,248.7892,10/10.0/2025,2000,g 17.0,4.0
# From MPC 85834
P/2013 P1 (PANSTARRS),e,18.6821,160.7166,138.0953,8.593411,0.0391251,0.60229803,180.8202,10/10.0/2025,2000,g 12.0,4.0
# From MPEC 2022-V95
P/2013 R3 (Catalina-PANSTARRS),e,0.8662,341.7554,11.4365,3.031911,0.1866936,0.27766085,106.0596,10/10.0/2025,2000,g 14.0,4.0
# From unp
P/2013 R3-A (Catalina-PANSTARRS),e,0.8653,341.7104,11.5137,3.031649,0.1867178,0.27759153,106.1438,10/10.0/2025,2000,g  9.0,4.0
# From MPEC 2015-M77
P/2013 R3-B (Catalina-PANSTARRS),e,0.8665,341.7664,11.4497,3.031882,0.1866963,0.27763608,106.0569,10/10.0/2025,2000,g  9.0,4.0
# From MPC 85835
P/2013 T1 (PANSTARRS),e,24.2656,10.0782,346.1701,5.855469,0.0695603,0.62348036,309.0089,10/10.0/2025,2000,g 16.5,4.0
# From MPC 86643
P/2013 T2 (Schwartz),e,9.4463,0.8010,345.5630,3.493718,0.1509289,0.50014479,323.1134,10/10.0/2025,2000,g 16.0,4.0
# From MPC 91613
P/2013 W1 (PANSTARRS),e,4.7001,117.8368,1.2565,3.484400,0.1515347,0.59389934,280.9115,10/10.0/2025,2000,g 17.5,4.0
# From MPC101095
P/2013 YG46 (Spacewatch),e,7.3400,44.5595,246.8877,3.252917,0.1679943,0.47551654,165.7826,10/10.0/2025,2000,g 10.0,4.0
# From MPC 89728
P/2014 A2 (Hill),e,24.5633,106.6559,356.2183,5.919989,0.0684262,0.64672340,299.3623,10/10.0/2025,2000,g 15.0,4.0
# From MPEC 2024-F34
P/2014 C1 (TOTAS),e,3.2023,39.7352,188.1289,4.031703,0.1217507,0.34079554,238.5573,10/10.0/2025,2000,g 15.5,4.0
# From MPEC 2022-WD2
C/2014 F3 (Sheppard-Trujillo),e,6.5210,325.9821,5.1237,14.37955,0.0180753,0.60136090,28.8653,10/10.0/2025,2000,g  6.0,4.0
# From MPC 98560
P/2014 L2 (NEOWISE),e,5.1894,149.3315,182.6789,6.313571,0.0621286,0.64600733,255.0335,10/10.0/2025,2000,g 12.0,4.0
# From MPC 90769
P/2014 L3 (Hill),e,6.2525,115.5310,178.6440,8.184235,0.0420956,0.77094649,173.8742,10/10.0/2025,2000,g 16.0,4.0
# From MPC 91614
P/2014 M4 (PANSTARRS),e,3.3472,263.1998,148.1343,5.862300,0.0694388,0.59592386,272.7731,10/10.0/2025,2000,g 15.0,4.0
# From MPC 98560
P/2014 O3 (PANSTARRS),e,7.7888,87.6238,204.6124,7.588295,0.0471507,0.38235887,198.5284,10/10.0/2025,2000,g 10.5,4.0
# From MPC182878
C/2014 OG392 (PANSTARRS),e,9.0322,145.8281,255.4348,12.25544,0.0229726,0.18509654,31.5072,10/10.0/2025,2000,g  6.0,4.0
# From MPC 91616
P/2014 U4 (PANSTARRS),e,6.4212,11.9239,347.8344,3.512616,0.1497125,0.46359831,254.6095,10/10.0/2025,2000,g 18.0,4.0
# From MPEC 2025-T80
C/2014 UN271 (Bernardinelli-Bernstein),h,01/16.1449/2031,95.4455,189.9736,326.0732,1.004355,10.960748,2000,2.5,3.2
# From MPC 95211
P/2014 V1 (PANSTARRS),e,22.4971,166.1732,177.6397,5.482150,0.0767852,0.53331542,300.2130,10/10.0/2025,2000,g 14.0,4.0
# From MPC105542
P/2014 W4 (PANSTARRS),e,15.2829,33.2920,67.7821,6.578768,0.0584100,0.35522322,208.0084,10/10.0/2025,2000,g 11.0,4.0
# From MPC 94281
P/2014 X1 (Elenin),e,26.0456,61.5357,33.9724,6.197171,0.0638872,0.71097524,250.8106,10/10.0/2025,2000,g 15.0,4.0
# From MPC 92275
P/2015 A3 (PANSTARRS),e,172.5517,277.4919,249.6718,7.815792,0.0451071,0.85102191,175.0484,10/10.0/2025,2000,g 20.0,4.0
# From MPC 99270
P/2015 B1 (PANSTARRS),e,18.0928,352.8440,188.6522,9.471985,0.0338098,0.36712576,124.6214,10/10.0/2025,2000,g  8.5,4.0
# From MPC109141
P/2015 B4 (Lemmon-PANSTARRS),e,1.7676,266.1378,227.1041,8.503733,0.0397457,0.56282455,154.7912,10/10.0/2025,2000,g 11.0,4.0
# From MPC101096
P/2015 C1 (TOTAS-Gibbs),e,13.8191,348.6850,178.1419,6.539625,0.0589352,0.56980139,224.3274,10/10.0/2025,2000,g 12.5,4.0
# From MPC109141
P/2015 D5 (Kowalski),e,20.5497,74.0847,39.6444,8.943897,0.0368480,0.49203082,154.7280,10/10.0/2025,2000,g  9.0,4.0
# From MPEC 2024-R10
P/2015 D6 (Lemmon-PANSTARRS),e,20.3230,45.3218,125.9527,7.117717,0.0519031,0.36295657,194.6846,10/10.0/2025,2000,g 10.5,4.0
# From MPC 95213
P/2015 K5 (PANSTARRS),e,39.9228,134.3191,106.0704,6.728245,0.0564744,0.55169391,214.3041,10/10.0/2025,2000,g 13.5,4.0
# From MPC107684
P/2015 M2 (PANSTARRS),e,3.9677,86.6983,225.6458,7.255767,0.0504289,0.17760924,186.3835,10/10.0/2025,2000,g  8.5,4.0
# From MPC 99819
P/2015 P4 (PANSTARRS),e,8.7225,104.6715,280.7447,6.049029,0.0662484,0.58483089,234.8550,10/10.0/2025,2000,g 14.0,4.0
# From MPEC 2022-K19
P/2015 PD229 (Cameron-ISON),e,2.0196,342.7500,352.6543,7.208968,0.0509207,0.32480826,189.2531,10/10.0/2025,2000,g 11.5,2.0
# From MPC 96867
P/2015 Q2 (Pimentel),e,146.5458,228.5113,244.6280,7.347192,0.0494905,0.75248837,182.0896,10/10.0/2025,2000,g 15.5,4.0
# From MPC 98562
P/2015 R1 (PANSTARRS),e,22.6780,48.3974,300.4920,5.885764,0.0690240,0.63270361,259.3026,10/10.0/2025,2000,g 14.0,4.0
# From MPC 95734
P/2015 R2 (PANSTARRS),e,15.4828,168.6024,149.8764,4.479182,0.1039695,0.45189215,31.0134,10/10.0/2025,2000,g 14.5,4.0
# From MPC102953
P/2015 TO19 (Lemmon-PANSTARRS),e,6.5055,321.6609,89.3553,4.546525,0.1016681,0.35966144,355.4671,10/10.0/2025,2000,g 14.0,4.0
# From MPC110080
P/2015 TP200 (LINEAR),e,8.7776,6.8856,82.6330,7.262876,0.0503548,0.53735068,164.2512,10/10.0/2025,2000,g 11.0,4.0
# From MPC101098
P/2015 W2 (Catalina),e,11.6218,294.0607,117.7357,7.294479,0.0500279,0.63503765,182.8203,10/10.0/2025,2000,g 13.0,4.0
# From MPEC 2023-J29
P/2015 X3 (PANSTARRS),e,24.4216,77.2537,306.9896,4.996503,0.0882480,0.43973796,326.5797,10/10.0/2025,2000,g 15.0,4.0
# From MPC115881
P/2015 X6 (PANSTARRS),e,4.5662,106.9294,329.6214,2.752859,0.2157884,0.17414686,32.7798,10/10.0/2025,2000,g 16.0,4.0
# From MPEC 2022-OB6
P/2016 A3 (PANSTARRS),e,8.5234,187.1171,340.8050,7.866205,0.0446741,0.38730968,137.9397,10/10.0/2025,2000,g 10.0,4.0
# From MPC102098
P/2016 A7 (PANSTARRS),e,16.1718,220.1908,352.9927,5.080352,0.0860723,0.56936855,308.8177,10/10.0/2025,2000,g 16.0,4.0
# From MPEC 2021-P47
P/2016 G1 (PANSTARRS),e,10.9703,204.0089,111.0814,2.583418,0.2373625,0.20993385,34.8640,10/10.0/2025,2000,g 14.0,4.0
# From MPEC 2024-C04
C/2016 J2 (Denneau),h,04/12.2947/2016,130.3885,186.2185,318.2248,1.000317,1.496485,2000,17.0,4.0
# From MPC102099
P/2016 P1 (PANSTARRS),e,24.4773,318.9656,271.1755,3.202637,0.1719660,0.28700726,271.8716,10/10.0/2025,2000,g 15.0,4.0
# From MPEC 2025-ST8
P/2016 P5 (COIAS),e,7.0383,185.3696,33.7413,4.699724,0.0967377,0.05736665,84.4440,10/10.0/2025,2000,g 13.2,4.0
# From MPEC 2024-H50
C/2016 Q2 (PANSTARRS),h,05/11.3453/2021,109.3175,322.3519,84.5209,1.002074,7.079859,2000,6.0,4.0
# From MPEC 2021-N06
C/2016 R2 (PANSTARRS),e,58.3898,80.4696,33.1648,565.4515,0.0000733,0.99541280,0.0000,05/11.7803/2018,2000,g  7.0,4.0
# From MPEC 2022-K19
P/2016 R4 (Gibbs),e,10.8620,168.2608,174.0850,5.338696,0.0799008,0.47457880,269.1846,10/10.0/2025,2000,g 12.5,4.0
# From MPC105543
P/2016 S1 (PANSTARRS),e,94.7290,227.6263,273.1481,8.265033,0.0414798,0.71227981,129.6233,10/10.0/2025,2000,g 12.0,4.0
# From MPC106345
P/2016 WM48 (Lemmon),e,117.6067,59.9388,36.1776,8.173284,0.0421803,0.78432703,132.6852,10/10.0/2025,2000,g 15.0,4.0
# From MPEC 2021-P47
C/2016 X1 (Lemmon),e,26.4685,256.3030,224.6375,3138,0.0000056,0.99758996,0.0000,05/01.2720/2019,2000,g  6.0,4.0
# From MPEC 2022-OB6
C/2017 B3 (LINEAR),e,54.2369,2.2638,284.7370,2966,0.0000061,0.99867437,0.0000,01/29.8885/2019,2000,g  6.0,4.0
# From MPC103847
P/2017 B4 (PANSTARRS),e,20.0584,121.4578,11.0197,4.410520,0.1064068,0.36495152,359.9130,01/05.0/2017,2000,g 14.5,4.0
# From MPEC 2022-OB6
P/2017 D1 (Fuls),e,20.7713,82.1888,8.1113,4.821104,0.0931074,0.43781584,315.4928,10/10.0/2025,2000,g 14.0,4.0
# From MPEC 2022-OB6
P/2017 D4 (PANSTARRS),e,10.5612,264.9128,212.1425,7.541687,0.0475884,0.63075477,157.7689,10/10.0/2025,2000,g 13.0,4.0
# From MPC184408
P/2017 FL36 (PANSTARRS),e,15.6870,313.4481,90.3431,2.927310,0.1967891,0.03290744,12.1493,10/10.0/2025,2000,g 14.7,4.0
# From MPEC 2024-C04
P/2017 G1 (PANSTARRS),e,5.1546,247.1317,225.2698,7.191882,0.0511023,0.65097120,176.7036,10/10.0/2025,2000,g 13.5,4.0
# From MPC108595
P/2017 G2 (PANSTARRS),e,47.9683,79.8907,105.1980,8.033872,0.0432829,0.64917883,131.7116,10/10.0/2025,2000,g 13.0,4.0
# From MPEC 2025-T80
C/2017 K2 (PANSTARRS),e,87.6386,88.2216,236.1612,1416,0.0000185,0.99872886,0.0000,12/18.3016/2022,2000,g  1.5,4.0
# From MPEC 2021-N06
P/2017 K3 (Gasparovic),e,4.2722,354.1548,253.2725,5.588684,0.0746002,0.57907378,229.1331,10/10.0/2025,2000,g 14.5,4.0
# From MPEC 2021-P47
C/2017 K5 (PANSTARRS),h,03/25.1353/2020,82.2801,102.4612,171.9101,1.002667,7.674925,2000,5.0,4.0
# From MPEC 2022-OB6
C/2017 M4 (ATLAS),h,01/17.5330/2019,105.6312,66.0034,167.3821,1.000041,3.233852,2000,6.0,4.0
# From MPC114599
P/2017 P1 (PANSTARRS),e,7.6880,221.4699,122.7414,7.920562,0.0442150,0.30874492,118.1162,10/10.0/2025,2000,g 10.0,4.0
# From MPEC 2022-OB6
P/2017 S8 (PANSTARRS),e,29.8406,191.5006,254.9376,2.778481,0.2128105,0.39115828,238.3720,10/10.0/2025,2000,g 16.0,4.0
# From MPEC 2024-A43
